NORAD_CAT_ID,OBJECT_NAME,OBJECT_TYPE,EPOCH,MEAN_MOTION,ECCENTRICITY,INCLINATION,RA_OF_ASC_NODE,ARG_OF_PERICENTER,MEAN_ANOMALY,BSTAR,MEAN_MOTION_DOT,MEAN_MOTION_DDOT,TLE_LINE0,TLE_LINE1,TLE_LINE2,SEMIMAJOR_AXIS,PERIOD,APOGEE,PERIGEE,DECAYED
54196.0,STARLINK-5237,PAYLOAD,2023-08-24 21:24:53,15.08844746,0.0001722,53.2132,199.0475,95.0609,265.0579,0.00011699,1.575e-05,0.0,0 STARLINK-5237,1 54196U 22141AR  23236.89228700  .00001575  00000-0  11699-3 0  9994,2 54196  53.2132 199.0475 0001722  95.0609 265.0579 15.08844746 45931,6917.866,95.437,540.922,538.54,0.0
54196.0,STARLINK-5237,PAYLOAD,2023-08-25 02:11:02,15.0884308,0.0001653,53.214,198.1541,109.7533,250.3637,7.8734e-05,9.65e-06,0.0,0 STARLINK-5237,1 54196U 22141AR  23237.09100606  .00000965  00000-0  78734-4 0  9997,2 54196  53.2140 198.1541 0001653 109.7533 250.3637 15.08843080 46197,6917.871,95.437,540.879,538.592,0.0
54196.0,STARLINK-5237,PAYLOAD,2023-08-25 06:57:12,15.08846566,0.0001358,53.2148,197.2638,95.3899,264.7248,0.0002244,3.286e-05,0.0,0 STARLINK-5237,1 54196U 22141AR  23237.28972725  .00003286  00000-0  22440-3 0  9998,2 54196  53.2148 197.2638 0001358  95.3899 264.7248 15.08846566 45995,6917.86,95.437,540.665,538.786,0.0
54196.0,STARLINK-5237,PAYLOAD,2023-08-26 06:47:59,15.08850516,0.0001415,53.2147,192.8025,97.391,262.7243,0.00028321,4.223e-05,0.0,0 STARLINK-5237,1 54196U 22141AR  23238.28332540  .00004223  00000-0  28321-3 0  9990,2 54196  53.2147 192.8025 0001415  97.3910 262.7243 15.08850516 46371,6917.848,95.437,540.692,538.734,0.0
54196.0,STARLINK-5237,PAYLOAD,2023-08-27 01:52:37,15.08839562,0.00015,53.2158,189.2357,95.1285,264.9879,6.935e-05,8.16e-06,0.0,0 STARLINK-5237,1 54196U 22141AR  23239.07821111  .00000816  00000-0  69350-4 0  9997,2 54196  53.2158 189.2357 0001500  95.1285 264.9879 15.08839562 46497,6917.882,95.438,540.784,538.709,0.0
54196.0,STARLINK-5237,PAYLOAD,2023-08-27 06:38:46,15.08843886,0.0001408,53.2156,188.3437,91.1503,268.965,0.00012069,1.634e-05,0.0,0 STARLINK-5237,1 54196U 22141AR  23239.27692891  .00001634  00000-0  12069-3 0  9993,2 54196  53.2156 188.3437 0001408  91.1503 268.9650 15.08843886 46293,6917.869,95.437,540.708,538.759,0.0
54196.0,STARLINK-5237,PAYLOAD,2023-08-27 20:57:15,15.08840882,0.00014,53.2159,185.6677,82.0421,278.073,4.6139e-05,4.46e-06,0.0,0 STARLINK-5237,1 54196U 22141AR  23239.87309047  .00000446  00000-0  46139-4 0  9993,2 54196  53.2159 185.6677 0001400  82.0421 278.0730 15.08840882 46386,6917.878,95.437,540.711,538.774,0.0
54196.0,STARLINK-5237,PAYLOAD,2023-08-28 03:18:47,15.0884644,0.0001369,53.2158,184.4784,87.0634,273.0515,0.00012645,1.725e-05,0.0,0 STARLINK-5237,1 54196U 22141AR  23240.13804810  .00001725  00000-0  12645-3 0  9997,2 54196  53.2158 184.4784 0001369  87.0634 273.0515 15.08846440 46658,6917.861,95.437,540.673,538.779,0.0
54196.0,STARLINK-5237,PAYLOAD,2023-08-28 12:51:06,15.08835869,0.0001545,53.2159,182.6945,87.4924,272.6245,-8.6015e-05,-1.657e-05,0.0,0 STARLINK-5237,1 54196U 22141AR  23240.53549270 -.00001657  00000-0 -86015-4 0  9996,2 54196  53.2159 182.6945 0001545  87.4924 272.6245 15.08835869 46715,6917.893,95.438,540.827,538.689,0.0
54196.0,STARLINK-5237,PAYLOAD,2023-08-29 04:44:57,15.08842688,0.0001379,53.216,179.7207,90.167,269.948,0.00011805,1.591e-05,0.0,0 STARLINK-5237,1 54196U 22141AR  23241.19789045  .00001591  00000-0  11805-3 0  9994,2 54196  53.2160 179.7207 0001379  90.1670 269.9480 15.08842688 46817,6917.872,95.437,540.691,538.783,0.0
54196.0,STARLINK-5237,PAYLOAD,2023-08-30 01:24:58,15.08834996,0.0001332,53.2157,175.8556,94.8169,265.2975,-3.695e-05,-8.76e-06,0.0,0 STARLINK-5237,1 54196U 22141AR  23242.05901516 -.00000876  00000-0 -36950-4 0  9995,2 54196  53.2157 175.8556 0001332  94.8169 265.2975 15.08834996 46945,6917.896,95.438,540.682,538.839,0.0
54196.0,STARLINK-5237,PAYLOAD,2023-08-30 12:32:40,15.08838849,0.0001401,53.2166,173.7739,92.4286,267.6867,8.036e-05,9.91e-06,0.0,0 STARLINK-5237,1 54196U 22141AR  23242.52269534  .00000991  00000-0  80360-4 0  9994,2 54196  53.2166 173.7739 0001401  92.4286 267.6867 15.08838849 46785,6917.884,95.438,540.718,538.78,0.0
54196.0,STARLINK-5237,PAYLOAD,2023-09-01 01:06:32,15.08852884,0.0001287,53.2171,166.9357,93.6464,266.4675,-0.0001519,-2.705e-05,0.0,0 STARLINK-5237,1 54196U 22141AR  23244.04621268 -.00002705  00000-0 -15190-3 0  9994,2 54196  53.2171 166.9357 0001287  93.6464 266.4675 15.08852884 47245,6917.841,95.437,540.596,538.816,0.0
54196.0,STARLINK-5237,PAYLOAD,2023-09-01 04:17:18,15.08860692,0.0001367,53.2169,166.3402,94.5409,265.5739,-0.0001003,-1.885e-05,0.0,0 STARLINK-5237,1 54196U 22141AR  23244.17868829 -.00001885  00000-0 -10030-3 0  9990,2 54196  53.2169 166.3402 0001367  94.5409 265.5739 15.08860692 47264,6917.817,95.436,540.628,538.736,0.0
54196.0,STARLINK-5237,PAYLOAD,2023-09-01 12:14:15,15.08841576,0.0001853,53.2175,164.8543,81.4334,278.6868,0.00012333,1.675e-05,0.0,0 STARLINK-5237,1 54196U 22141AR  23244.50990112  .00001675  00000-0  12333-3 0  9991,2 54196  53.2175 164.8543 0001853  81.4334 278.6868 15.08841576 47080,6917.876,95.437,541.022,538.459,0.0
54196.0,STARLINK-5237,PAYLOAD,2023-09-01 18:35:48,15.08841437,0.0001784,53.2169,163.6648,81.8039,278.3155,0.00014237,1.979e-05,0.0,0 STARLINK-5237,1 54196U 22141AR  23244.77486135  .00001979  00000-0  14237-3 0  9997,2 54196  53.2169 163.6648 0001784  81.8039 278.3155 15.08841437 47357,6917.876,95.437,540.975,538.507,0.0
54196.0,STARLINK-5237,PAYLOAD,2023-09-02 00:57:21,15.08827709,0.0001263,53.2179,162.4756,81.9012,278.2124,-3.7843e-05,-8.9e-06,0.0,0 STARLINK-5237,1 54196U 22141AR  23245.03982945 -.00000890  00000-0 -37843-4 0  9999,2 54196  53.2179 162.4756 0001263  81.9012 278.2124 15.08827709 47394,6917.918,95.438,540.657,538.909,0.0
54196.0,STARLINK-5237,PAYLOAD,2023-09-02 04:08:07,15.08831706,0.0001913,53.2181,161.8762,101.7614,258.3593,-7.5594e-05,-1.491e-05,0.0,0 STARLINK-5237,1 54196U 22141AR  23245.17230865 -.00001491  00000-0 -75594-4 0  9994,2 54196  53.2181 161.8762 0001913 101.7614 258.3593 15.08831706 47186,6917.906,95.438,541.094,538.447,0.0
54196.0,STARLINK-5237,PAYLOAD,2023-09-03 00:48:07,15.08851676,0.0001546,53.215,158.0117,91.2833,268.8337,0.00033026,4.974e-05,0.0,0 STARLINK-5237,1 54196U 22141AR  23246.03341997  .00004974  00000-0  33026-3 0  9999,2 54196  53.2150 158.0117 0001546  91.2833 268.8337 15.08851676 47542,6917.845,95.437,540.779,538.64,0.0
54196.0,STARLINK-5237,PAYLOAD,2023-09-04 00:38:54,15.08843499,0.0001207,53.2157,153.5529,89.8125,270.3006,0.00025459,3.767e-05,0.0,0 STARLINK-5237,1 54196U 22141AR  23247.02702541  .00003767  00000-0  25459-3 0  9995,2 54196  53.2157 153.5529 0001207  89.8125 270.3006 15.08843499 47698,6917.87,95.437,540.57,538.9,0.0
54196.0,STARLINK-5237,PAYLOAD,2023-09-04 03:49:41,15.08848202,0.0001206,53.2152,152.9568,90.6608,269.4522,0.00029969,4.486e-05,0.0,0 STARLINK-5237,1 54196U 22141AR  23247.15950340  .00004486  00000-0  29969-3 0  9990,2 54196  53.2152 152.9568 0001206  90.6608 269.4522 15.08848202 47480,6917.855,95.437,540.555,538.886,0.0
54196.0,STARLINK-5237,PAYLOAD,2023-09-05 00:29:41,15.08844111,0.0001165,53.2151,149.0905,90.9235,269.189,0.00025588,3.787e-05,0.0,0 STARLINK-5237,1 54196U 22141AR  23248.02062326  .00003787  00000-0  25588-3 0  9991,2 54196  53.2151 149.0905 0001165  90.9235 269.1890 15.08844111 47844,6917.868,95.437,540.539,538.927,0.0
54196.0,STARLINK-5237,PAYLOAD,2023-09-06 01:55:51,15.08849716,0.000118,53.2154,144.3352,95.4046,264.7081,0.00025674,3.802e-05,0.0,0 STARLINK-5237,1 54196U 22141AR  23249.08046071  .00003802  00000-0  25674-3 0  9991,2 54196  53.2154 144.3352 0001180  95.4046 264.7081 15.08849716 48006,6917.851,95.437,540.532,538.899,0.0
54196.0,STARLINK-5237,PAYLOAD,2023-09-06 19:25:06,15.0884179,0.0001169,53.215,141.0637,88.1228,271.9898,4.1052e-05,3.66e-06,0.0,0 STARLINK-5237,1 54196U 22141AR  23249.80910345  .00000366  00000-0  41052-4 0  9996,2 54196  53.2150 141.0637 0001169  88.1228 271.9898 15.08841790 47885,6917.875,95.437,540.549,538.931,0.0
54196.0,STARLINK-5237,PAYLOAD,2023-09-07 01:46:38,15.08846635,0.0001445,53.2155,139.876,94.5754,265.5403,0.00015765,2.222e-05,0.0,0 STARLINK-5237,1 54196U 22141AR  23250.07406120  .00002222  00000-0  15765-3 0  9992,2 54196  53.2155 139.8760 0001445  94.5754 265.5403 15.08846635 48159,6917.86,95.437,540.725,538.725,0.0
54196.0,STARLINK-5237,PAYLOAD,2023-09-08 01:37:26,15.08840473,0.0001354,53.215,135.4141,85.21,274.9046,9.3957e-06,-1.38e-06,0.0,0 STARLINK-5237,1 54196U 22141AR  23251.06766457 -.00000138  00000-0  93957-5 0  9990,2 54196  53.2150 135.4141 0001354  85.2100 274.9046 15.08840473 48308,6917.879,95.438,540.681,538.807,0.0
54196.0,STARLINK-5237,PAYLOAD,2023-09-08 03:12:49,15.08839304,0.0001294,53.2144,135.1155,86.5601,273.5539,1.6802e-05,-2e-07,0.0,0 STARLINK-5237,1 54196U 22141AR  23251.13390470 -.00000020  00000-0  16802-4 0  9999,2 54196  53.2144 135.1155 0001294  86.5601 273.5539 15.08839304 48084,6917.883,95.438,540.643,538.852,0.0
54196.0,STARLINK-5237,PAYLOAD,2023-09-08 22:17:26,15.0884324,0.0001271,53.2145,131.5469,95.5887,264.525,5.3142e-05,5.58e-06,0.0,0 STARLINK-5237,1 54196U 22141AR  23251.92878276  .00000558  00000-0  53142-4 0  9994,2 54196  53.2145 131.5469 0001271  95.5887 264.5250 15.08843240 48202,6917.87,95.437,540.615,538.856,0.0
54196.0,STARLINK-5237,PAYLOAD,2023-09-09 09:25:08,15.08841345,0.000123,53.2162,129.4645,96.7894,263.3239,9.9651e-05,1.298e-05,0.0,0 STARLINK-5237,1 54196U 22141AR  23252.39246378  .00001298  00000-0  99651-4 0  9995,2 54196  53.2162 129.4645 0001230  96.7894 263.3239 15.08841345 48500,6917.876,95.437,540.592,538.89,0.0
54196.0,STARLINK-5237,PAYLOAD,2023-09-09 22:08:14,15.08839277,0.0001234,53.2162,127.0862,93.2847,266.8286,7.5194e-05,9.09e-06,0.0,0 STARLINK-5237,1 54196U 22141AR  23252.92238631  .00000909  00000-0  75194-4 0  9991,2 54196  53.2162 127.0862 0001234  93.2847 266.8286 15.08839277 48353,6917.883,95.438,540.601,538.894,0.0
